SAUDISAT 2              
1 28371U 04025F   26201.96130199  .00000140  00000+0  42203-4 0  9990
2 28371  98.5524 202.8186 0024428 190.1819 169.8887 14.56700247170665
COSMOS 2407             
1 28380U 04028A   26201.95432281  .00000031  00000+0  15241-4 0  9990
2 28380  82.9584  49.8198 0039727 156.0809 320.4956 13.76336825104520
COSMOS 2414             
1 28521U 05002A   26201.91488706  .00000050  00000+0  28993-4 0  9998
2 28521  82.9493  18.1270 0038972 231.9648 127.7996 13.87928717 88499
INMARSAT 4-F1           
1 28628U 05009A   26201.86741104  .00000030  00000+0  00000+0 0  9993
2 28628   5.2136  42.7963 0002678  74.7671 311.4360  1.00274022 78013
SJ-7                    
1 28737U 05024A   26201.82243014  .00005156  00000+0  22867-3 0  9997
2 28737  97.7275 232.8395 0013610 274.6859  85.2822 15.21982665153146
CUBESAT XI-V            
1 28895U 05043F   26201.69535046  .00000717  00000+0  12047-3 0  9994
2 28895  98.3023 358.0290 0015358  99.2356 261.0589 14.72710537106681
HINODE (SOLAR-B)        
1 29479U 06041A   26201.91019266  .00000379  00000+0  73517-4 0  9992
2 29479  98.0548 217.5659 0017511 176.1800 183.9542 14.68662680 59823
SHIJIAN-6 02B (SJ-6 02B)
1 29506U 06046B   26202.00220501  .00000393  00000+0  35142-4 0  9993
2 29506  97.7141 230.8510 0012664 315.2475  44.7727 15.01442791 75814
DMSP 5D-3 F17 (USA 191) 
1 29522U 06050A   26201.96964043 -.00000010  00000+0  17280-4 0  9996
2 29522  98.7390 207.8500 0009394 325.5407  34.5156 14.14996434 17200
LAPAN-TUBSAT            
1 29709U 07001A   26201.99033086 -.00000186  00000+0 -14623-4 0  9990
2 29709  98.1363 201.9792 0013639  77.1325 283.1412 14.85978832 56171
HAIYANG-1B              
1 31113U 07010A   26201.91616523  .00000059  00000+0  38313-4 0  9996
2 31113  98.3520 182.4571 0014800 100.2392 260.0461 14.31034308  5467
COSMO-SKYMED 2          
1 32376U 07059A   26201.91632229  .00000217  00000+0  33867-4 0  9997
2 32376  97.8897  25.0267 0001468  93.9065 266.2316 14.82153355  7004
CARTOSAT-2A             
1 32783U 08021A   26201.93542515 -.00000241  00000+0 -25618-4 0  9993
2 32783  97.7612 249.4892 0012007   9.4733 350.6703 14.79278341983797
CUTE-1.7+APD II (CO-65) 
1 32785U 08021C   26201.92100785  .00002914  00000+0  18484-3 0  9992
2 32785  97.8299 184.0527 0006863 275.3891  84.6554 15.09730364990284
SEEDS II (CO-66)        
1 32791U 08021J   26201.94032663  .00013404  00000+0  41244-3 0  9996
2 32791  97.7537 201.4796 0003696 144.6807 215.4681 15.33789824992462
YUBILEINY (RS30)        
1 32953U 08025A   26201.89925807  .00000106  00000+0  69253-3 0  9990
2 32953  82.5071 334.4691 0018770 235.8235 124.1066 12.43181117823886
FENGYUN 3A              
1 32958U 08026A   26201.80885957  .00000035  00000+0  37299-4 0  9995
2 32958  98.6886 142.0143 0009454  37.1178 323.0651 14.19577262940173
HUANJING 1A (HJ-1A)     
1 33320U 08041A   26201.94662549  .00000351  00000+0  48167-4 0  9998
2 33320  97.6709 186.4843 0019943  31.9995 328.2427 14.84056322963413
HUANJING 1B (HJ-1B)     
1 33321U 08041B   26201.93122508  .00000970  00000+0  12312-3 0  9993
2 33321  97.6545 189.5384 0037947  73.3875 287.1501 14.83372951963411
SHIJIAN-6 03A (SJ-6 03A)
1 33408U 08053A   26201.94567574  .00002601  00000+0  13352-3 0  9997
2 33408  97.8402 236.4441 0009450 252.5598 107.4602 15.17447382968081
SHIJIAN-6 03B (SJ-6 03B)
1 33409U 08053B   26201.95604153 -.00000093  00000+0 -19503-5 0  9995
2 33409  97.8561 222.4077 0017845 289.0845  70.8447 15.04379047967824
